QIANFAN-69              
1 62799U 25016Q   26062.57547512  .00000081  00000+0  10693-3 0  9999
2 62799  88.9668  94.5862 0017923 109.8886 250.4199 13.51004610 58190
QIANFAN-70              
1 62800U 25016R   26062.59188085  .00000053  00000+0  63419-4 0  9994
2 62800  88.9690  94.7403 0017554 101.3688 258.9436 13.50996916 58159
QIANFAN-71              
1 62801U 25016S   26062.58770881  .00000056  00000+0  68452-4 0  9990
2 62801  88.9683  94.7152 0017789 112.9958 247.3072 13.50996428 58157
QIANFAN-72              
1 62802U 25016T   26062.60417581  .00000053  00000+0  62723-4 0  9991
2 62802  88.9674  94.7190 0020970 119.7984 240.5256 13.50996129 58146
QIANFAN-73              
1 63159U 25046A   26062.63103474  .00000165  00000+0  23753-3 0  9999
2 63159  88.9763 311.6692 0013126 249.5796 110.3946 13.50997659 58337
QIANFAN-74              
1 63160U 25046B   26062.61463598  .00000201  00000+0  29283-3 0  9990
2 63160  88.9763 311.5597 0001888  78.0513 282.0850 13.50997497 58393
QIANFAN-75              
1 63161U 25046C   26062.60177542  .00000194  00000+0  28236-3 0  9999
2 63161  88.9765 311.7958 0014329 253.3527 106.6052 13.51001297 58262
QIANFAN-76              
1 63162U 25046D   26062.67218427  .00000219  00000+0  32001-3 0  9998
2 63162  88.9764 311.7685 0011878 253.8058 106.1787 13.51013789 58280
QIANFAN-77              
1 63163U 25046E   26062.67390057  .00000439  00000+0  30996-3 0  9994
2 63163  88.9760 309.1104 0014260 180.7183 179.3976 13.96173017 59743
QIANFAN-78              
1 63164U 25046F   26062.63926875  .00000207  00000+0  30255-3 0  9995
2 63164  88.9763 311.6352 0013202 256.6602 103.3077 13.50997773 58352
QIANFAN-79              
1 63165U 25046G   26062.66822578  .00000192  00000+0  27806-3 0  9995
2 63165  88.9767 311.7429 0013065 254.8085 105.1621 13.51007998 58307
QIANFAN-80              
1 63166U 25046H   26062.61044528  .00000183  00000+0  26537-3 0  9992
2 63166  88.9764 311.4536 0011894 259.7587 100.2223 13.50997527 58455
QIANFAN-81              
1 63167U 25046J   26062.66264095  .00000192  00000+0  27953-3 0  9994
2 63167  88.9764 311.5160 0012943 247.2219 112.7565 13.50983527 58418
QIANFAN-82              
1 63168U 25046K   26062.62283347  .00000177  00000+0  25613-3 0  9996
2 63168  88.9765 311.5641 0011011 255.3625 104.6306 13.50998893 58392
QIANFAN-83              
1 63169U 25046L   26062.65810763  .00000278  00000+0  34450-3 0  9999
2 63169  88.9764 311.1779 0012397 232.9738 127.0286 13.62019888 58616
QIANFAN-84              
1 63170U 25046M   26062.65060512 -.00000071  00000+0 -12778-3 0  9992
2 63170  88.9761 311.6934 0014029 251.3490 108.6138 13.50960654 58329
QIANFAN-85              
1 63171U 25046N   26062.64750548  .00000199  00000+0  28995-3 0  9994
2 63171  88.9764 311.5655 0011425 253.9902 105.9991 13.51001675 58399
