[{"OBJECT_NAME":"QIANFAN-69","OBJECT_ID":"2025-016Q","EPOCH":"2026-03-03T13:48:41.050368","MEAN_MOTION":13.5100461,"ECCENTRICITY":0.00179239,"INCLINATION":88.9668,"RA_OF_ASC_NODE":94.5862,"ARG_OF_PERICENTER":109.8886,"MEAN_ANOMALY":250.4199,"EPHEMERIS_TYPE":0,"CLASSIFICATION_TYPE":"U","NORAD_CAT_ID":62799,"ELEMENT_SET_NO":999,"REV_AT_EPOCH":5819,"BSTAR":0.00010692792,"MEAN_MOTION_DOT":8.1e-7,"MEAN_MOTION_DDOT":0},{"OBJECT_NAME":"QIANFAN-70","OBJECT_ID":"2025-016R","EPOCH":"2026-03-03T14:12:18.505440","MEAN_MOTION":13.50996916,"ECCENTRICITY":0.00175546,"INCLINATION":88.969,"RA_OF_ASC_NODE":94.7403,"ARG_OF_PERICENTER":101.3688,"MEAN_ANOMALY":258.9436,"EPHEMERIS_TYPE":0,"CLASSIFICATION_TYPE":"U","NORAD_CAT_ID":62800,"ELEMENT_SET_NO":999,"REV_AT_EPOCH":5815,"BSTAR":6.3418777e-5,"MEAN_MOTION_DOT":5.3e-7,"MEAN_MOTION_DDOT":0},{"OBJECT_NAME":"QIANFAN-71","OBJECT_ID":"2025-016S","EPOCH":"2026-03-03T14:06:18.041184","MEAN_MOTION":13.50996428,"ECCENTRICITY":0.00177897,"INCLINATION":88.9683,"RA_OF_ASC_NODE":94.7152,"ARG_OF_PERICENTER":112.9958,"MEAN_ANOMALY":247.3072,"EPHEMERIS_TYPE":0,"CLASSIFICATION_TYPE":"U","NORAD_CAT_ID":62801,"ELEMENT_SET_NO":999,"REV_AT_EPOCH":5815,"BSTAR":6.8451889e-5,"MEAN_MOTION_DOT":5.6e-7,"MEAN_MOTION_DDOT":0},{"OBJECT_NAME":"QIANFAN-72","OBJECT_ID":"2025-016T","EPOCH":"2026-03-03T14:30:00.789984","MEAN_MOTION":13.50996129,"ECCENTRICITY":0.00209705,"INCLINATION":88.9674,"RA_OF_ASC_NODE":94.719,"ARG_OF_PERICENTER":119.7984,"MEAN_ANOMALY":240.5256,"EPHEMERIS_TYPE":0,"CLASSIFICATION_TYPE":"U","NORAD_CAT_ID":62802,"ELEMENT_SET_NO":999,"REV_AT_EPOCH":5814,"BSTAR":6.2722675e-5,"MEAN_MOTION_DOT":5.3e-7,"MEAN_MOTION_DDOT":0},{"OBJECT_NAME":"QIANFAN-73","OBJECT_ID":"2025-046A","EPOCH":"2026-03-03T15:08:41.401536","MEAN_MOTION":13.50997659,"ECCENTRICITY":0.00131261,"INCLINATION":88.9763,"RA_OF_ASC_NODE":311.6692,"ARG_OF_PERICENTER":249.5796,"MEAN_ANOMALY":110.3946,"EPHEMERIS_TYPE":0,"CLASSIFICATION_TYPE":"U","NORAD_CAT_ID":63159,"ELEMENT_SET_NO":999,"REV_AT_EPOCH":5833,"BSTAR":0.00023752881,"MEAN_MOTION_DOT":1.65e-6,"MEAN_MOTION_DDOT":0},{"OBJECT_NAME":"QIANFAN-74","OBJECT_ID":"2025-046B","EPOCH":"2026-03-03T14:45:04.548672","MEAN_MOTION":13.50997497,"ECCENTRICITY":0.00018885,"INCLINATION":88.9763,"RA_OF_ASC_NODE":311.5597,"ARG_OF_PERICENTER":78.0513,"MEAN_ANOMALY":282.085,"EPHEMERIS_TYPE":0,"CLASSIFICATION_TYPE":"U","NORAD_CAT_ID":63160,"ELEMENT_SET_NO":999,"REV_AT_EPOCH":5839,"BSTAR":0.00029282922,"MEAN_MOTION_DOT":2.01e-6,"MEAN_MOTION_DDOT":0},{"OBJECT_NAME":"QIANFAN-75","OBJECT_ID":"2025-046C","EPOCH":"2026-03-03T14:26:33.396288","MEAN_MOTION":13.51001297,"ECCENTRICITY":0.00143294,"INCLINATION":88.9765,"RA_OF_ASC_NODE":311.7958,"ARG_OF_PERICENTER":253.3527,"MEAN_ANOMALY":106.6052,"EPHEMERIS_TYPE":0,"CLASSIFICATION_TYPE":"U","NORAD_CAT_ID":63161,"ELEMENT_SET_NO":999,"REV_AT_EPOCH":5826,"BSTAR":0.00028235818,"MEAN_MOTION_DOT":1.94e-6,"MEAN_MOTION_DDOT":0},{"OBJECT_NAME":"QIANFAN-76","OBJECT_ID":"2025-046D","EPOCH":"2026-03-03T16:07:56.720928","MEAN_MOTION":13.51013789,"ECCENTRICITY":0.00118782,"INCLINATION":88.9764,"RA_OF_ASC_NODE":311.7685,"ARG_OF_PERICENTER":253.8058,"MEAN_ANOMALY":106.1787,"EPHEMERIS_TYPE":0,"CLASSIFICATION_TYPE":"U","NORAD_CAT_ID":63162,"ELEMENT_SET_NO":999,"REV_AT_EPOCH":5828,"BSTAR":0.00032000512,"MEAN_MOTION_DOT":2.19e-6,"MEAN_MOTION_DDOT":0},{"OBJECT_NAME":"QIANFAN-77","OBJECT_ID":"2025-046E","EPOCH":"2026-03-03T16:10:25.009248","MEAN_MOTION":13.96173017,"ECCENTRICITY":0.001426,"INCLINATION":88.976,"RA_OF_ASC_NODE":309.1104,"ARG_OF_PERICENTER":180.7183,"MEAN_ANOMALY":179.3976,"EPHEMERIS_TYPE":0,"CLASSIFICATION_TYPE":"U","NORAD_CAT_ID":63163,"ELEMENT_SET_NO":999,"REV_AT_EPOCH":5974,"BSTAR":0.0003099627,"MEAN_MOTION_DOT":4.39e-6,"MEAN_MOTION_DDOT":0},{"OBJECT_NAME":"QIANFAN-78","OBJECT_ID":"2025-046F","EPOCH":"2026-03-03T15:20:32.820000","MEAN_MOTION":13.50997773,"ECCENTRICITY":0.00132028,"INCLINATION":88.9763,"RA_OF_ASC_NODE":311.6352,"ARG_OF_PERICENTER":256.6602,"MEAN_ANOMALY":103.3077,"EPHEMERIS_TYPE":0,"CLASSIFICATION_TYPE":"U","NORAD_CAT_ID":63164,"ELEMENT_SET_NO":999,"REV_AT_EPOCH":5835,"BSTAR":0.00030254775,"MEAN_MOTION_DOT":2.07e-6,"MEAN_MOTION_DDOT":0},{"OBJECT_NAME":"QIANFAN-79","OBJECT_ID":"2025-046G","EPOCH":"2026-03-03T16:02:14.707392","MEAN_MOTION":13.51007998,"ECCENTRICITY":0.00130653,"INCLINATION":88.9767,"RA_OF_ASC_NODE":311.7429,"ARG_OF_PERICENTER":254.8085,"MEAN_ANOMALY":105.1621,"EPHEMERIS_TYPE":0,"CLASSIFICATION_TYPE":"U","NORAD_CAT_ID":63165,"ELEMENT_SET_NO":999,"REV_AT_EPOCH":5830,"BSTAR":0.00027806211,"MEAN_MOTION_DOT":1.92e-6,"MEAN_MOTION_DDOT":0},{"OBJECT_NAME":"QIANFAN-80","OBJECT_ID":"2025-046H","EPOCH":"2026-03-03T14:39:02.472192","MEAN_MOTION":13.50997527,"ECCENTRICITY":0.00118949,"INCLINATION":88.9764,"RA_OF_ASC_NODE":311.4536,"ARG_OF_PERICENTER":259.7587,"MEAN_ANOMALY":100.2223,"EPHEMERIS_TYPE":0,"CLASSIFICATION_TYPE":"U","NORAD_CAT_ID":63166,"ELEMENT_SET_NO":999,"REV_AT_EPOCH":5845,"BSTAR":0.00026536717,"MEAN_MOTION_DOT":1.83e-6,"MEAN_MOTION_DDOT":0},{"OBJECT_NAME":"QIANFAN-81","OBJECT_ID":"2025-046J","EPOCH":"2026-03-03T15:54:12.178080","MEAN_MOTION":13.50983527,"ECCENTRICITY":0.00129435,"INCLINATION":88.9764,"RA_OF_ASC_NODE":311.516,"ARG_OF_PERICENTER":247.2219,"MEAN_ANOMALY":112.7565,"EPHEMERIS_TYPE":0,"CLASSIFICATION_TYPE":"U","NORAD_CAT_ID":63167,"ELEMENT_SET_NO":999,"REV_AT_EPOCH":5841,"BSTAR":0.00027952619,"MEAN_MOTION_DOT":1.92e-6,"MEAN_MOTION_DDOT":0},{"OBJECT_NAME":"QIANFAN-82","OBJECT_ID":"2025-046K","EPOCH":"2026-03-03T14:56:52.811808","MEAN_MOTION":13.50998893,"ECCENTRICITY":0.00110119,"INCLINATION":88.9765,"RA_OF_ASC_NODE":311.5641,"ARG_OF_PERICENTER":255.3625,"MEAN_ANOMALY":104.6306,"EPHEMERIS_TYPE":0,"CLASSIFICATION_TYPE":"U","NORAD_CAT_ID":63168,"ELEMENT_SET_NO":999,"REV_AT_EPOCH":5839,"BSTAR":0.00025612548,"MEAN_MOTION_DOT":1.77e-6,"MEAN_MOTION_DDOT":0},{"OBJECT_NAME":"QIANFAN-83","OBJECT_ID":"2025-046L","EPOCH":"2026-03-03T15:47:40.499232","MEAN_MOTION":13.62019888,"ECCENTRICITY":0.00123978,"INCLINATION":88.9764,"RA_OF_ASC_NODE":311.1779,"ARG_OF_PERICENTER":232.9738,"MEAN_ANOMALY":127.0286,"EPHEMERIS_TYPE":0,"CLASSIFICATION_TYPE":"U","NORAD_CAT_ID":63169,"ELEMENT_SET_NO":999,"REV_AT_EPOCH":5861,"BSTAR":0.00034450197,"MEAN_MOTION_DOT":2.78e-6,"MEAN_MOTION_DDOT":0},{"OBJECT_NAME":"QIANFAN-84","OBJECT_ID":"2025-046M","EPOCH":"2026-03-03T15:36:52.282368","MEAN_MOTION":13.50960654,"ECCENTRICITY":0.00140299,"INCLINATION":88.9761,"RA_OF_ASC_NODE":311.6934,"ARG_OF_PERICENTER":251.349,"MEAN_ANOMALY":108.6138,"EPHEMERIS_TYPE":0,"CLASSIFICATION_TYPE":"U","NORAD_CAT_ID":63170,"ELEMENT_SET_NO":999,"REV_AT_EPOCH":5832,"BSTAR":-0.00012778363,"MEAN_MOTION_DOT":-7.1e-7,"MEAN_MOTION_DDOT":0},{"OBJECT_NAME":"QIANFAN-85","OBJECT_ID":"2025-046N","EPOCH":"2026-03-03T15:32:24.473472","MEAN_MOTION":13.51001675,"ECCENTRICITY":0.00114257,"INCLINATION":88.9764,"RA_OF_ASC_NODE":311.5655,"ARG_OF_PERICENTER":253.9902,"MEAN_ANOMALY":105.9991,"EPHEMERIS_TYPE":0,"CLASSIFICATION_TYPE":"U","NORAD_CAT_ID":63171,"ELEMENT_SET_NO":999,"REV_AT_EPOCH":5839,"BSTAR":0.00028995298,"MEAN_MOTION_DOT":1.99e-6,"MEAN_MOTION_DDOT":0}]
